P/2018 A5 (PANSTARRS),e,23.5954,87.8035,359.5021,5.630709,0.0737665,0.52285193,123.5334,04/25.0/2022,2000,g 15.0,4.0
# From MPEC 2022-C56
C/2018 A6 (Gibbs),e,77.0560,340.3808,264.3938,15.10413,0.0167904,0.80022283,17.0854,04/25.0/2022,2000,g  9.0,4.0
# From MPC118841
C/2018 B1 (Lemmon),e,162.4202,133.1905,68.3572,9327,0.0000011,0.99945062,0.0000,03/28.3563/2018,2000,g  9.0,4.0
# From MPC114601
P/2018 C1 (Lemmon-Read),e,5.1141,270.3526,235.7067,5.653529,0.0733204,0.53213914,111.5155,04/25.0/2022,2000,g 13.5,4.0
# From MPC114601
C/2018 C2 (Lemmon),h,05/31.8755/2018,34.4625,91.1988,134.0733,1.000275,1.960470,2000,13.0,4.0
# From MPEC 2021-U31
C/2018 DO4 (Lemmon),e,160.4492,251.4007,176.2673,25.41898,0.0076907,0.90512008,7.5494,04/25.0/2022,2000,g 11.0,4.0
# From MPC114602
C/2018 E1 (ATLAS),e,72.5137,146.8615,299.3192,53.86052,0.0024934,0.94994472,3.6610,04/25.0/2022,2000,g 10.5,4.0
# From MPC114602
C/2018 E2 (Barros),e,97.6526,67.1702,277.4464,3510,0.0000047,0.99888349,0.0000,12/23.9123/2017,2000,g 10.5,4.0
# From MPC114602
C/2018 EN4 (NEOWISE),e,81.9261,136.1281,35.0601,17.99531,0.0129112,0.91881340,18.3559,04/25.0/2022,2000,g 15.0,4.0
# From MPC114602
C/2018 EF9 (Lemmon),e,84.6161,172.5531,72.6243,483.1304,0.0000928,0.99677144,0.0000,05/21.9364/2018,2000,g 18.0,2.0
# From MPEC 2021-R75
C/2018 F1 (Grauer),e,46.0774,177.2756,71.6074,254.5090,0.0002427,0.98822846,0.0000,12/12.8122/2018,2000,g 11.5,4.0
# From MPC110084
C/2018 F3 (Johnson),p,08/15.2314/2017,105.5348,293.0113,2.483172,173.0311,2000,13.0,4.0
# From MPEC 2021-W31
C/2018 F4 (PANSTARRS),h,12/03.7926/2019,78.0860,26.5157,263.2298,1.000507,3.442013,2000,11.0,6.0
# From MPEC 2021-Y10
C/2018 F4-A,h,12/03.7808/2019,78.0862,26.5159,263.2266,1.000454,3.441881,2000,11.0,6.0
# From MPEC 2021-W31
C/2018 F4-B,h,12/03.7170/2019,78.0870,26.5155,263.2116,1.000551,3.441664,2000,11.0,6.0
# From MPC114602
P/2018 H2 (PANSTARRS),e,7.3974,68.1905,119.9654,4.385949,0.1073022,0.54130449,166.8306,04/25.0/2022,2000,g 16.6,2.0
# From MPC114602
C/2018 K1 (Weiland),e,164.1921,260.1213,325.1964,30.14670,0.0059545,0.93754293,8.8049,04/25.0/2022,2000,g 14.9,4.0
# From MPEC 2021-R75
C/2018 KJ3 (Lemmon),e,136.6931,91.6296,217.6785,953.0498,0.0000335,0.99619188,0.0000,09/09.9181/2019,2000,g 12.2,2.0
# From MPC114602
P/2018 L1 (PANSTARRS),e,10.5849,268.6273,18.0294,3.652640,0.1411867,0.48227570,177.8570,04/25.0/2022,2000,g 15.0,4.0
# From MPEC 2021-P47
C/2018 L2 (ATLAS),e,67.3124,243.0140,56.3065,261.1545,0.0002335,0.99343491,0.0000,12/02.5546/2018,2000,g 10.0,4.0
# From MPC114603
P/2018 L4 (PANSTARRS),e,26.6241,145.1567,140.6173,4.943819,0.0896624,0.65957160,122.2598,04/25.0/2022,2000,g 17.5,4.0
# From MPC119996
P/2018 L5 (Leonard),e,2.2082,219.0695,93.9180,3.628591,0.1425926,0.36452135,206.8297,04/25.0/2022,2000,g 14.5,4.0
# From MPC117070
C/2018 M1 (Catalina),e,37.3008,339.4092,14.2083,21.44788,0.0099226,0.93922712,13.7359,04/25.0/2022,2000,g 15.5,4.0
# From MPC112393
C/2018 N1 (NEOWISE),e,159.4293,292.4889,354.7016,379.9095,0.0001331,0.99655013,0.0000,08/02.3444/2018,2000,g 15.5,4.0
# From MPEC 2022-H30
C/2018 N2 (ASASSN),h,11/11.1181/2019,77.5431,25.2163,24.4403,1.000495,3.125957,2000,6.0,4.0
# From MPC114603
C/2018 O1 (ATLAS),e,154.0201,87.7201,162.6713,28.04784,0.0066352,0.94436873,8.8379,04/25.0/2022,2000,g 17.0,4.0
# From MPC114603
P/2018 P3 (PANSTARRS),e,8.9124,59.1625,305.9327,3.004988,0.1892082,0.41695908,244.4989,04/25.0/2022,2000,g 14.5,4.0
# From MPC114603
P/2018 P4 (PANSTARRS),e,23.1100,353.0610,8.3449,6.679638,0.0570919,0.45067247,72.1219,04/25.0/2022,2000,g 12.0,4.0
# From MPEC 2021-P47
C/2018 P5 (PANSTARRS),e,7.2488,216.2170,131.8638,12.82989,0.0214471,0.64286886,24.7110,04/25.0/2022,2000,g 11.0,4.0
# From MPC118841
C/2018 R3 (Lemmon),e,69.7260,324.6314,112.7684,1560,0.0000160,0.99917572,0.0000,06/07.4927/2019,2000,g  9.5,4.0
# From MPC112393
C/2018 R4 (Fuls),e,11.6777,298.4853,345.3202,336.8610,0.0001594,0.99489502,0.0000,03/03.1585/2018,2000,g 14.0,4.0
# From MPC114603
C/2018 R5 (Lemmon),e,103.7500,171.1130,178.1312,22.83796,0.0090306,0.84114200,10.8446,04/25.0/2022,2000,g 11.5,4.0
# From MPEC 2022-H30
C/2018 U1 (Lemmon),h,11/03.1503/2021,108.3042,75.4814,180.4731,1.001465,4.993023,2000,5.0,4.0
# From MPC114604
C/2018 V1 (Machholz-Fujikawa-Iwamoto),h,12/02.9255/2018,144.0691,128.9424,88.9585,1.000333,0.388558,2000,12.0,4.0
# From MPC115884
C/2018 V2 (ATLAS),e,159.1675,357.0783,318.9612,25.03837,0.0078667,0.90092922,9.8043,04/25.0/2022,2000,g 15.0,4.0
# From MPC114604
P/2018 VN2 (Leonard),e,18.2576,226.4712,138.8037,4.064174,0.1202945,0.47885656,170.6251,04/25.0/2022,2000,g 15.0,4.0
# From MPEC 2021-P47
A/2018 V3,e,164.9739,308.6710,3.5790,125.4875,0.0007011,0.98930979,0.0000,09/08.8547/2019,2000,g 15.7,2.0
# From MPC114604
C/2018 V4 (Africano),e,69.0142,78.3201,359.9263,203.7668,0.0003388,0.98431885,0.0000,03/01.3902/2019,2000,g 12.5,4.0
# From MPEC 2021-P47
P/2018 V5 (Trujillo-Sheppard),e,10.5888,171.2866,260.6542,8.956362,0.0367711,0.47512872,47.8008,04/25.0/2022,2000,g 12.5,4.0
# From MPEC 2021-P47
C/2018 W1 (Catalina),e,83.3280,233.6272,251.2306,21.67619,0.0097663,0.93725061,10.5409,04/25.0/2022,2000,g 15.5,2.0
# From MPEC 2021-P47
C/2018 W2 (Africano),h,09/05.4467/2019,116.6250,181.8201,158.0142,1.000443,1.457847,2000,9.5,4.0
# From MPC119996
C/2018 X2 (Fitzsimmons),e,23.0694,340.8299,161.9930,141.8642,0.0005833,0.98502528,0.0000,07/08.1969/2019,2000,g 12.0,4.0
# From MPC114604
C/2018 X3 (PANSTARRS),e,43.3881,78.8639,359.7319,12.36955,0.0226555,0.78228658,27.4417,04/25.0/2022,2000,g 14.5,4.0
# From MPC118842
C/2018 Y1 (Iwamoto),e,160.4006,147.5093,357.9630,134.5671,0.0006314,0.99046035,0.0000,02/06.5713/2019,2000,g 11.5,4.0
# From MPC114605
P/2018 Y2 (Africano),e,11.6825,297.2416,162.2632,7.455539,0.0484156,0.47882066,58.5609,04/25.0/2022,2000,g 11.5,4.0
# From MPC114605
P/2019 A1 (PANSTARRS),e,13.7460,312.2900,150.7233,5.118785,0.0851047,0.56861350,109.9890,04/25.0/2022,2000,g 16.0,4.0
# From MPEC 2021-P47
P/2019 A2 (ATLAS),e,14.8599,139.4661,323.9104,5.717115,0.0721006,0.38162063,90.2612,04/25.0/2022,2000,g 10.5,4.0
# From MPEC 2022-H04
P/2019 A3 (PANSTARRS),e,15.3733,31.2918,325.5713,3.145622,0.1766624,0.26598535,240.3461,04/25.0/2022,2000,g 16.0,4.0
# From MPC114605
P/2019 A4 (PANSTARRS),e,13.3063,119.2549,342.6311,2.614344,0.2331631,0.08721646,287.5143,04/25.0/2022,2000,g 15.0,4.0
# From MPEC 2021-P47
C/2019 A5 (PANSTARRS),e,67.5580,146.6250,355.8728,21.52365,0.0098703,0.70642521,10.3893,04/25.0/2022,2000,g  9.5,4.0
# From MPC114605
P/2019 A6 (Lemmon-PANSTARRS),e,33.2446,280.2337,156.1778,5.359219,0.0794423,0.63943883,106.0205,04/25.0/2022,2000,g 16.0,4.0
# From MPC115884
P/2019 A8 (PANSTARRS),e,2.2336,116.0277,64.7424,4.203636,0.1143580,0.26467973,151.6348,04/25.0/2022,2000,g 16.0,4.0
# From MPC118842
C/2019 A9 (PANSTARRS),e,84.1894,278.3879,237.9334,39.24597,0.0040088,0.96353820,4.0244,04/25.0/2022,2000,g 15.0,4.0
# From MPC114606
C/2019 B1 (Africano),e,123.3749,290.4174,174.8006,139.0744,0.0006009,0.98851935,0.0000,03/19.2143/2019,2000,g 16.0,4.0
# From MPC115885
P/2019 B2 (Groeller),e,17.0150,175.7564,0.9401,3.898289,0.1280540,0.36625318,134.9136,04/25.0/2022,2000,g 14.5,4.0
# From MPEC 2022-C56
C/2019 B3 (PANSTARRS),h,01/20.4094/2021,66.5352,358.4369,263.9458,1.001213,6.823792,2000,5.5,4.0
# From MPEC 2021-P47
C/2019 C1 (ATLAS),e,36.0416,212.3867,319.1390,672.6535,0.0000565,0.99021844,0.0000,05/04.9117/2020,2000,g 10.0,4.0
# From MPC118842
C/2019 D1 (Flewelling),e,34.0412,231.6908,70.6081,143.1710,0.0005753,0.98895004,0.0000,05/11.7046/2019,2000,g 13.0,4.0
# From MPEC 2022-H30
C/2019 E3 (ATLAS),h,11/14.0340/2023,84.2977,347.2544,280.6541,1.001688,10.313660,2000,2.5,4.0
# From MPEC 2022-F14
C/2019 F1 (ATLAS-Africano),h,06/23.0107/2021,54.1787,38.7097,251.1732,1.003750,3.596300,2000,5.5,4.0
# From MPEC 2021-P47
C/2019 F2 (ATLAS),e,19.2310,175.5562,11.5360,16.66608,0.0144862,0.86531116,13.8996,04/25.0/2022,2000,g 12.0,4.0
# From MPEC 2021-P47
A/2019 G2,e,159.2087,208.1539,82.6192,532.4754,0.0000802,0.99569577,0.0000,12/09.5187/2019,2000,g 16.5,2.0
# From MPEC 2021-N06
A/2019 G4,h,09/16.1022/2018,138.3768,130.4626,287.8415,1.002057,5.854332,2000,13.0,2.0
# From MPC114607
P/2019 GG21 (PANSTARRS),e,6.0845,340.5679,208.6161,7.472952,0.0482465,0.47223225,52.1198,04/25.0/2022,2000,g 12.0,4.0
# From MPC115885
C/2019 H1 (NEOWISE),e,104.5228,269.2309,19.3482,241.6598,0.0002624,0.99236032,0.0000,04/27.9406/2019,2000,g 15.5,4.0
# From MPC118842
C/2019 J1 (Lemmon),e,24.5479,98.1171,167.7889,68.89999,0.0017234,0.96396786,1.9170,04/25.0/2022,2000,g 12.0,4.0
# From MPEC 2021-R75
C/2019 J2 (Palomar),e,105.2158,25.5380,98.7299,160.8642,0.0004831,0.98927530,0.0000,07/19.9055/2019,2000,g 13.0,4.0
# From MPC117071
C/2019 J3 (ATLAS),h,08/02.1918/2019,131.3897,270.5616,16.6209,1.000647,2.374047,2000,13.5,4.0
# From MPC117071
C/2019 JU6 (ATLAS),e,148.3272,21.7737,94.9609,363.9162,0.0001420,0.99437679,0.0000,06/01.1806/2019,2000,g 14.5,4.0
# From MPEC 2021-P47
C/2019 K1 (ATLAS),h,02/12.9729/2020,87.1009,73.3652,265.7145,1.000012,2.012697,2000,10.0,4.0
# From MPC119997
C/2019 K4 (Ye),e,105.2969,180.1430,139.8064,1314,0.0000207,0.99827808,0.0000,06/15.9751/2019,2000,g 12.5,4.0
# From MPEC 2021-P47
C/2019 K5 (Young),e,15.3187,177.1302,175.0626,164.0794,0.0004689,0.98758054,0.0000,06/23.0525/2019,2000,g 13.0,4.0
# From MPEC 2021-P47
C/2019 K6 (PANSTARRS),e,132.3837,42.9711,187.6336,1903,0.0000119,0.99793565,0.0000,05/20.2464/2020,2000,g 11.5,4.0
# From MPEC 2022-H30
C/2019 K7 (Smith),h,06/17.3366/2020,103.5418,307.9377,27.3647,1.000420,4.477032,2000,6.0,4.0
# From MPEC 2021-R75
C/2019 K8 (ATLAS),e,93.1919,291.0447,85.3923,2630,0.0000073,0.99878551,0.0000,07/21.7071/2019,2000,g 11.5,4.0
# From MPC118095
C/2019 L1 (PANSTARRS),e,9.9869,254.4258,50.0159,9.842135,0.0319205,0.70585540,31.5286,04/25.0/2022,2000,g 13.5,4.0
# From MPC115886
C/2019 L2 (NEOWISE),e,152.2038,12.5546,18.7942,24.92278,0.0079215,0.93484299,8.8668,04/25.0/2022,2000,g 16.0,4.0
# From MPEC 2021-Y10
